{
    "links": {
        "self": "http://www.neowsapp.com/rest/v1/neo/3780734?api_key=iIulBulltgU6a56xZRHN4H3l9WmuAYTsLGpBGhQ2"
    },
    "id": "3780734",
    "neo_reference_id": "3780734",
    "name": "(2017 QN1)",
    "designation": "2017 QN1",
    "nasa_jpl_url": "http://ssd.jpl.nasa.gov/sbdb.cgi?sstr=3780734",
    "absolute_magnitude_h": 26.4,
    "estimated_diameter": {
        "kilometers": {
            "estimated_diameter_min": 0.0139493823,
            "estimated_diameter_max": 0.0311917671
        },
        "meters": {
            "estimated_diameter_min": 13.9493822934,
            "estimated_diameter_max": 31.1917670523
        },
        "miles": {
            "estimated_diameter_min": 0.0086677416,
            "estimated_diameter_max": 0.0193816595
        },
        "feet": {
            "estimated_diameter_min": 45.7656914036,
            "estimated_diameter_max": 102.3351970157
        }
    },
    "is_potentially_hazardous_asteroid": false,
    "close_approach_data": [
        {
            "close_approach_date": "2015-09-29",
            "close_approach_date_full": "2015-Sep-29 03:13",
            "epoch_date_close_approach": 1443496380000,
            "relative_velocity": {
                "kilometers_per_second": "4.5269197346",
                "kilometers_per_hour": "16296.9110444514",
                "miles_per_hour": "10126.2667542593"
            },
            "miss_distance": {
                "astronomical": "0.133685118",
                "lunar": "52.003510902",
                "kilometers": "19999008.90349866",
                "miles": "12426807.893895108"
            },
            "orbiting_body": "Venus"
        },
        {
            "close_approach_date": "2017-08-30",
            "close_approach_date_full": "2017-Aug-30 00:47",
            "epoch_date_close_approach": 1504054020000,
            "relative_velocity": {
                "kilometers_per_second": "10.5211484764",
                "kilometers_per_hour": "37876.1345151196",
                "miles_per_hour": "23534.7570269086"
            },
            "miss_distance": {
                "astronomical": "0.0140422117",
                "lunar": "5.4624203513",
                "kilometers": "2100684.960409079",
                "miles": "1305305.1065961302"
            },
            "orbiting_body": "Earth"
        }
    ],
    "orbital_data": {
        "orbit_id": "2",
        "orbit_determination_date": "2017-08-22 06:17:17",
        "first_observation_date": "2017-08-16",
        "last_observation_date": "2017-08-22",
        "data_arc_in_days": 6,
        "observations_used": 13,
        "orbit_uncertainty": "8",
        "minimum_orbit_intersection": ".00684483",
        "jupiter_tisserand_invariant": "4.221",
        "epoch_osculation": "2457982.5",
        "eccentricity": ".4668989480152642",
        "semi_major_axis": "1.606507489148505",
        "inclination": "2.343966050610612",
        "ascending_node_longitude": "145.6950931499193",
        "orbital_period": "743.7424302954266",
        "perihelion_distance": ".8564308324864246",
        "perihelion_argument": "248.1299895063002",
        "aphelion_distance": "2.356584145810586",
        "perihelion_time": "2458038.519812894045",
        "mean_anomaly": "332.884251562943",
        "mean_motion": ".4840385398705868",
        "equinox": "J2000",
        "orbit_class": {
            "orbit_class_type": "APO",
            "orbit_class_description": "Near-Earth asteroid orbits which cross the Earth’s orbit similar to that of 1862 Apollo",
            "orbit_class_range": "a (semi-major axis) > 1.0 AU; q (perihelion) < 1.017 AU"
        }
    },
    "is_sentry_object": false
}